[{"OBJECT_NAME":"STARLINK-2084","OBJECT_ID":"2021-005V","EPOCH":"2026-03-10T00:00:02.999808","MEAN_MOTION":15.1207585,"ECCENTRICITY":2.582e-5,"INCLINATION":53.0759,"RA_OF_ASC_NODE":60.1546,"ARG_OF_PERICENTER":161.2563,"MEAN_ANOMALY":166.4598,"EPHEMERIS_TYPE":0,"CLASSIFICATION_TYPE":"U","NORAD_CAT_ID":47368,"ELEMENT_SET_NO":999,"REV_AT_EPOCH":574,"BSTAR":0.004658,"MEAN_MOTION_DOT":0.00081703,"MEAN_MOTION_DDOT":0},{"OBJECT_NAME":"SHIJIAN-30C (SJ-30C)","OBJECT_ID":"2025-266C","EPOCH":"2026-03-09T22:18:08.951328","MEAN_MOTION":15.15375128,"ECCENTRICITY":0.00100456,"INCLINATION":51.7965,"RA_OF_ASC_NODE":284.3719,"ARG_OF_PERICENTER":284.8645,"MEAN_ANOMALY":75.1218,"EPHEMERIS_TYPE":0,"CLASSIFICATION_TYPE":"U","NORAD_CAT_ID":66547,"ELEMENT_SET_NO":999,"REV_AT_EPOCH":1680,"BSTAR":0.00059078911,"MEAN_MOTION_DOT":0.00011009,"MEAN_MOTION_DDOT":0}]
